start=new Date('2021-09-21T00:00:00.000Z').valueOf();
sats=[{"ELEMENT_SET_NO":"999","SITE":"AFETR","TLE_LINE1":"1 44238U 19029D   21263.75431486  .00004304  00000-0  23047-3 0  9994","MEAN_ELEMENT_THEORY":"SGP4","APOAPSIS":"515.551","ARG_OF_PERICENTER":"73.4899","PERIOD":"94.922","MEAN_ANOMALY":"286.6210","OBJECT_TYPE":"PAYLOAD","NORAD_CAT_ID":"44238","MEAN_MOTION":"15.17030568","CENTER_NAME":"EARTH","PERIAPSIS":"514.094","SEMIMAJOR_AXIS":"6892.958","COUNTRY_CODE":"US","REV_AT_EPOCH":"12714","RCS_SIZE":"LARGE","TLE_LINE2":"2 44238  52.9931 273.1588 0001057  73.4899 286.6210 15.17030568127145","MEAN_MOTION_DOT":"0.00004304","MEAN_MOTION_DDOT":"0.0000000000000","LAUNCH_DATE":"2019-05-24","EPOCH":"2021-09-20T18:06:12.803904","EPHEMERIS_TYPE":"0","ECCENTRICITY":"0.00010570","BSTAR":"0.00023047000000","INCLINATION":"52.9931","OBJECT_ID":"2019-029D","FILE":"3121356","GP_ID":"185122469","OBJECT_NAME":"STARLINK-24","RA_OF_ASC_NODE":"273.1588","DECAY_DATE":null,"CLASSIFICATION_TYPE":"U","TIME_SYSTEM":"UTC","REF_FRAME":"TEME"},{"TLE_LINE2":"2 44249  52.9868 244.3933 0005703  32.4183 327.7161 15.22523868128232","RCS_SIZE":"LARGE","REV_AT_EPOCH":"12823","SEMIMAJOR_AXIS":"6876.368","COUNTRY_CODE":"US","PERIAPSIS":"494.311","CENTER_NAME":"EARTH","MEAN_MOTION":"15.22523868","NORAD_CAT_ID":"44249","MEAN_ANOMALY":"327.7161","OBJECT_TYPE":"PAYLOAD","PERIOD":"94.580","ARG_OF_PERICENTER":"32.4183","TLE_LINE1":"1 44249U 19029Q   21263.67789905  .00003296  00000-0  15443-3 0  9999","MEAN_ELEMENT_THEORY":"SGP4","APOAPSIS":"502.154","SITE":"AFETR","ELEMENT_SET_NO":"999","REF_FRAME":"TEME","CLASSIFICATION_TYPE":"U","TIME_SYSTEM":"UTC","RA_OF_ASC_NODE":"244.3933","DECAY_DATE":null,"OBJECT_NAME":"STARLINK-61","GP_ID":"185121217","INCLINATION":"52.9868","OBJECT_ID":"2019-029Q","FILE":"3121356","BSTAR":"0.00015443000000","ECCENTRICITY":"0.00057030","EPOCH":"2021-09-20T16:16:10.477920","EPHEMERIS_TYPE":"0","LAUNCH_DATE":"2019-05-24","MEAN_MOTION_DOT":"0.00003296","MEAN_MOTION_DDOT":"0.0000000000000"},{"RCS_SIZE":"LARGE","TLE_LINE2":"2 44252  52.9984 273.6637 0001320 108.3600 251.7538 15.19193301127772","REV_AT_EPOCH":"12777","COUNTRY_CODE":"US","SEMIMAJOR_AXIS":"6886.414","PERIAPSIS":"507.370","MEAN_MOTION":"15.19193301","CENTER_NAME":"EARTH","MEAN_ANOMALY":"251.7538","OBJECT_TYPE":"PAYLOAD","NORAD_CAT_ID":"44252","TLE_LINE1":"1 44252U 19029T   21263.73229985  .00004089  00000-0  20683-3 0  9990","MEAN_ELEMENT_THEORY":"SGP4","APOAPSIS":"509.188","ARG_OF_PERICENTER":"108.3600","PERIOD":"94.787","SITE":"AFETR","ELEMENT_SET_NO":"999","REF_FRAME":"TEME","RA_OF_ASC_NODE":"273.6637","DECAY_DATE":null,"CLASSIFICATION_TYPE":"U","TIME_SYSTEM":"UTC","OBJECT_NAME":"STARLINK-71","GP_ID":"185120967","INCLINATION":"52.9984","OBJECT_ID":"2019-029T","FILE":"3121356","ECCENTRICITY":"0.00013200","BSTAR":"0.00020683000000","LAUNCH_DATE":"2019-05-24","EPOCH":"2021-09-20T17:34:30.707040","EPHEMERIS_TYPE":"0","MEAN_MOTION_DOT":"0.00004089","MEAN_MOTION_DDOT":"0.0000000000000"},{"INCLINATION":"52.9976","OBJECT_ID":"2019-029Y","FILE":"3121356","ECCENTRICITY":"0.00021110","BSTAR":"0.00063742000000","LAUNCH_DATE":"2019-05-24","EPOCH":"2021-09-20T20:33:33.540480","EPHEMERIS_TYPE":"0","MEAN_MOTION_DOT":"0.00035659","MEAN_MOTION_DDOT":"0.0000000000000","REF_FRAME":"TEME","RA_OF_ASC_NODE":"143.7997","DECAY_DATE":null,"CLASSIFICATION_TYPE":"U","TIME_SYSTEM":"UTC","OBJECT_NAME":"STARLINK-43","GP_ID":"185122219","CENTER_NAME":"EARTH","MEAN_MOTION":"15.49697560","MEAN_ANOMALY":"214.5049","OBJECT_TYPE":"PAYLOAD","NORAD_CAT_ID":"44257","TLE_LINE1":"1 44257U 19029Y   21263.85663820  .00035659  00000-0  63742-3 0  9998","APOAPSIS":"419.047","MEAN_ELEMENT_THEORY":"SGP4","PERIOD":"92.921","ARG_OF_PERICENTER":"145.6095","ELEMENT_SET_NO":"999","SITE":"AFETR","RCS_SIZE":"LARGE","TLE_LINE2":"2 44257  52.9976 143.7997 0002111 145.6095 214.5049 15.49697560129781","REV_AT_EPOCH":"12978","SEMIMAJOR_AXIS":"6795.747","COUNTRY_CODE":"US","PERIAPSIS":"416.178"},{"SEMIMAJOR_AXIS":"6697.206","COUNTRY_CODE":"US","PERIAPSIS":"314.502","RCS_SIZE":"LARGE","TLE_LINE2":"2 44281  52.9865 160.6285 0006822 188.9685 171.1216 15.84025865 61535","REV_AT_EPOCH":"6153","MEAN_ELEMENT_THEORY":"SGP4","APOAPSIS":"323.640","TLE_LINE1":"1 44281U 19029AY  21263.86841501  .00349155  00000-0  14673-2 0  9997","PERIOD":"90.908","ARG_OF_PERICENTER":"188.9685","SITE":"AFETR","ELEMENT_SET_NO":"999","CENTER_NAME":"EARTH","MEAN_MOTION":"15.84025865","OBJECT_TYPE":"PAYLOAD","MEAN_ANOMALY":"171.1216","NORAD_CAT_ID":"44281","OBJECT_NAME":"STARLINK-70","GP_ID":"185121969","REF_FRAME":"TEME","DECAY_DATE":null,"RA_OF_ASC_NODE":"160.6285","TIME_SYSTEM":"UTC","CLASSIFICATION_TYPE":"U","LAUNCH_DATE":"2019-05-24","EPHEMERIS_TYPE":"0","EPOCH":"2021-09-20T20:50:31.056864","MEAN_MOTION_DDOT":"0.0000000000000","MEAN_MOTION_DOT":"0.00349155","FILE":"3121356","INCLINATION":"52.9865","OBJECT_ID":"2019-029AY","ECCENTRICITY":"0.00068220","BSTAR":"0.00146730000000"},{"REF_FRAME":"TEME","CLASSIFICATION_TYPE":"U","TIME_SYSTEM":"UTC","RA_OF_ASC_NODE":"194.8534","DECAY_DATE":null,"OBJECT_NAME":"STARLINK-80","GP_ID":"185095533","INCLINATION":"53.0200","OBJECT_ID":"2019-029AZ","FILE":"3121163","BSTAR":"0.00039518000000","ECCENTRICITY":"0.00023180","EPOCH":"2021-09-20T04:45:14.666688","EPHEMERIS_TYPE":"0","LAUNCH_DATE":"2019-05-24","MEAN_MOTION_DOT":"0.00012933","MEAN_MOTION_DDOT":"0.0000000000000","RCS_SIZE":"LARGE","TLE_LINE2":"2 44282  53.0200 194.8534 0002318 178.0878 182.0131 15.34241126128364","REV_AT_EPOCH":"12836","COUNTRY_CODE":"US","SEMIMAJOR_AXIS":"6841.312","PERIAPSIS":"461.592","MEAN_MOTION":"15.34241126","CENTER_NAME":"EARTH","NORAD_CAT_ID":"44282","MEAN_ANOMALY":"182.0131","OBJECT_TYPE":"PAYLOAD","ARG_OF_PERICENTER":"178.0878","PERIOD":"93.857","TLE_LINE1":"1 44282U 19029AZ  21263.19808642  .00012933  00000-0  39518-3 0  9990","APOAPSIS":"464.763","MEAN_ELEMENT_THEORY":"SGP4","SITE":"AFETR","ELEMENT_SET_NO":"999"},{"INCLINATION":"52.9803","OBJECT_ID":"2019-029BE","FILE":"3121358","ECCENTRICITY":"0.00090040","BSTAR":"0.00188170000000","LAUNCH_DATE":"2019-05-24","EPOCH":"2021-09-20T23:25:37.582752","EPHEMERIS_TYPE":"0","MEAN_MOTION_DOT":"0.00766377","MEAN_MOTION_DDOT":"0.0002639600000","REF_FRAME":"TEME","RA_OF_ASC_NODE":"145.9919","DECAY_DATE":null,"CLASSIFICATION_TYPE":"U","TIME_SYSTEM":"UTC","OBJECT_NAME":"STARLINK-76","GP_ID":"185125527","MEAN_MOTION":"15.95466836","CENTER_NAME":"EARTH","MEAN_ANOMALY":"143.1311","OBJECT_TYPE":"PAYLOAD","NORAD_CAT_ID":"44287","TLE_LINE1":"1 44287U 19029BE  21263.97612943  .00766377  26396-3  18817-2 0  9993","APOAPSIS":"293.017","MEAN_ELEMENT_THEORY":"SGP4","ARG_OF_PERICENTER":"216.8938","PERIOD":"90.256","SITE":"AFETR","ELEMENT_SET_NO":"999","TLE_LINE2":"2 44287  52.9803 145.9919 0009004 216.8938 143.1311 15.95466836131734","RCS_SIZE":"LARGE","REV_AT_EPOCH":"13173","SEMIMAJOR_AXIS":"6665.151","COUNTRY_CODE":"US","PERIAPSIS":"281.015"},{"BSTAR":"-0.00005700000000","ECCENTRICITY":"0.00008610","FILE":"3121356","OBJECT_ID":"2019-074A","INCLINATION":"53.0555","MEAN_MOTION_DDOT":"0.0000000000000","MEAN_MOTION_DOT":"-0.00001130","EPHEMERIS_TYPE":"0","EPOCH":"2021-09-20T20:28:02.028864","LAUNCH_DATE":"2019-11-11","TIME_SYSTEM":"UTC","CLASSIFICATION_TYPE":"U","DECAY_DATE":null,"RA_OF_ASC_NODE":"307.7689","REF_FRAME":"TEME","GP_ID":"185122010","OBJECT_NAME":"STARLINK-1007","NORAD_CAT_ID":"44713","OBJECT_TYPE":"PAYLOAD","MEAN_ANOMALY":"276.6843","CENTER_NAME":"EARTH","MEAN_MOTION":"15.06389860","SITE":"AFETR","ELEMENT_SET_NO":"999","PERIOD":"95.593","ARG_OF_PERICENTER":"83.4244","APOAPSIS":"547.841","MEAN_ELEMENT_THEORY":"SGP4","TLE_LINE1":"1 44713U 19074A   21263.85280126 -.00001130  00000-0 -57000-4 0  9999","REV_AT_EPOCH":"10294","RCS_SIZE":"LARGE","TLE_LINE2":"2 44713  53.0555 307.7689 0000861  83.4244 276.6843 15.06389860102942","PERIAPSIS":"546.648","SEMIMAJOR_AXIS":"6925.380","COUNTRY_CODE":"US"},{"OBJECT_NAME":"STARLINK-1008","GP_ID":"185120758","REF_FRAME":"TEME","CLASSIFICATION_TYPE":"U","TIME_SYSTEM":"UTC","RA_OF_ASC_NODE":"307.8300","DECAY_DATE":null,"EPOCH":"2021-09-20T19:57:32.276448","EPHEMERIS_TYPE":"0","LAUNCH_DATE":"2019-11-11","MEAN_MOTION_DOT":"0.00000579","MEAN_MOTION_DDOT":"0.0000000000000","INCLINATION":"53.0553","OBJECT_ID":"2019-074B","FILE":"3121356","BSTAR":"0.00005778300000","ECCENTRICITY":"0.00009770","SEMIMAJOR_AXIS":"6925.381","COUNTRY_CODE":"US","PERIAPSIS":"546.570","RCS_SIZE":"LARGE","TLE_LINE2":"2 44714  53.0553 307.8300 0000977 114.7838 245.3252 15.06389266102944","REV_AT_EPOCH":"10294","PERIOD":"95.593","ARG_OF_PERICENTER":"114.7838","TLE_LINE1":"1 44714U 19074B   21263.83162357  .00000579  00000-0  57783-4 0  9995","APOAPSIS":"547.923","MEAN_ELEMENT_THEORY":"SGP4","ELEMENT_SET_NO":"999","SITE":"AFETR","MEAN_MOTION":"15.06389266","CENTER_NAME":"EARTH","NORAD_CAT_ID":"44714","MEAN_ANOMALY":"245.3252","OBJECT_TYPE":"PAYLOAD"},{"MEAN_MOTION":"15.06394701","CENTER_NAME":"EARTH","NORAD_CAT_ID":"44715","MEAN_ANOMALY":"274.9349","OBJECT_TYPE":"PAYLOAD","ARG_OF_PERICENTER":"85.1711","PERIOD":"95.592","TLE_LINE1":"1 44715U 19074C   21263.82055908  .00000615  00000-0  60169-4 0  9991","APOAPSIS":"547.661","MEAN_ELEMENT_THEORY":"SGP4","ELEMENT_SET_NO":"999","SITE":"AFETR","RCS_SIZE":"LARGE","TLE_LINE2":"2 44715  53.0547 307.8784 0000623  85.1711 274.9349 15.06394701102937","REV_AT_EPOCH":"10293","SEMIMAJOR_AXIS":"6925.365","COUNTRY_CODE":"US","PERIAPSIS":"546.798","INCLINATION":"53.0547","OBJECT_ID":"2019-074C","FILE":"3121356","BSTAR":"0.00006016900000","ECCENTRICITY":"0.00006230","EPOCH":"2021-09-20T19:41:36.304512","EPHEMERIS_TYPE":"0","LAUNCH_DATE":"2019-11-11","MEAN_MOTION_DOT":"0.00000615","MEAN_MOTION_DDOT":"0.0000000000000","REF_FRAME":"TEME","CLASSIFICATION_TYPE":"U","TIME_SYSTEM":"UTC","RA_OF_ASC_NODE":"307.8784","DECAY_DATE":null,"OBJECT_NAME":"STARLINK-1009","GP_ID":"185121509"}];
